     2.10           GLONASS NAV DATA                        RINEX VERSION / TYPE
SPIDER V4,0,0,3554                      2015 03 24 00:16    PGM / RUN BY / DATE 
  2015     2    26   -1.164153218269e-008                    CORR TO SYSTEM TIME 
    16                                                      LEAP SECONDS        
                                                            END OF HEADER       
 1 15 02 26 13 45  0.0-1.559108495712D-04 0.000000000000D+00 4.860000000000D+04
    1.771816064453D+04-1.075268745422D+00-0.000000000000D+00 0.000000000000D+00
    1.563813769531D+04-7.705268859863D-01 9.313225746155D-10 1.000000000000D+00
   -9.627759277344D+03-3.230119705200D+00 1.862645149231D-09 0.000000000000D+00
 2 15 02 26 13 45  0.0 1.204647123814D-04 9.094947017729D-13 4.860000000000D+04
    2.254406933594D+04 1.048689842224D+00-0.000000000000D+00 0.000000000000D+00
    8.629326660156D+03 4.301185607910D-01 1.862645149231D-09-4.000000000000D+00
    8.225296875000D+03-3.340195655823D+00 0.000000000000D+00 0.000000000000D+00
 3 15 02 26 13 45  0.0 3.605987876654D-05 9.094947017729D-13 4.860000000000D+04
    1.398651562500D+04 2.515278816223D+00-0.000000000000D+00 0.000000000000D+00
   -3.452074218750D+03 1.400603294373D+00 9.313225746155D-10 5.000000000000D+00
    2.107477148438D+04-1.444132804871D+00-1.862645149231D-09 0.000000000000D+00
12 15 02 26 13 45  0.0-4.118308424950D-06 9.094947017729D-13 4.860000000000D+04
    7.830616699219D+03-2.762988090515D+00 0.000000000000D+00 0.000000000000D+00
    7.857881835938D+03 1.513978004456D+00 2.793967723846D-09-1.000000000000D+00
    2.295198583984D+04 4.099540710449D-01-9.313225746155D-10 0.000000000000D+00
13 15 02 26 13 45  0.0-4.733558744192D-04-9.094947017729D-13 4.860000000000D+04
    2.074531542969D+04-1.775802612305D+00-0.000000000000D+00 0.000000000000D+00
   -4.355100585938D+03 8.132066726685D-01 9.313225746155D-10-2.000000000000D+00
    1.416902099609D+04 2.846647262573D+00-1.862645149231D-09 0.000000000000D+00
14 15 02 26 13 45  0.0 1.361081376672D-04 4.547473508865D-12 4.860000000000D+04
    2.142674902344D+04 2.491683959961D-01-0.000000000000D+00 0.000000000000D+00
   -1.355868017578D+04-4.186172485352D-01-9.313225746155D-10-7.000000000000D+00
   -3.099712890625D+03 3.569507598877D+00-0.000000000000D+00 0.000000000000D+00
12 15 02 26 14 15  0.0-4.116445779800D-06 0.000000000000D+00 5.040000000000D+04
    3.059871093750D+03-2.494347572327D+00 0.000000000000D+00 0.000000000000D+00
    1.095150195313D+04 1.893952369690D+00 2.793967723846D-09-1.000000000000D+00
    2.279081005859D+04-5.883102416992D-01-9.313225746155D-10 0.000000000000D+00
 2 15 02 26 14 15  0.0 1.204684376717D-04 9.094947017729D-13 5.040000000000D+04
    2.379207031250D+04 3.096828460693D-01 0.000000000000D+00 0.000000000000D+00
    8.943404296875D+03-5.054092407227D-02 1.862645149231D-09-4.000000000000D+00
    1.972370605469D+03-3.562361717224D+00 9.313225746155D-10 0.000000000000D+00
 3 15 02 26 14 15  0.0 3.606174141169D-05 9.094947017729D-13 5.040000000000D+04
    1.833405957031D+04 2.266488075256D+00-0.000000000000D+00 0.000000000000D+00
   -1.430064941406D+03 8.456735610962D-01 9.313225746155D-10 5.000000000000D+00
    1.769590917969D+04-2.285961151123D+00-9.313225746155D-10 0.000000000000D+00
13 15 02 26 14 15  0.0-4.733586683869D-04-9.094947017729D-13 5.040000000000D+04
    1.719518798828D+04-2.121011734009D+00 0.000000000000D+00 0.000000000000D+00
   -2.324455078125D+03 1.446787834167D+00 9.313225746155D-10-2.000000000000D+00
    1.867815185547D+04 2.130890846252D+00-1.862645149231D-09 0.000000000000D+00
14 15 02 26 14 15  0.0 1.361174508929D-04 4.547473508865D-12 5.040000000000D+04
    2.116498925781D+04-5.166769027710D-01-0.000000000000D+00 0.000000000000D+00
   -1.389389013672D+04 8.170795440674D-02-0.000000000000D+00-7.000000000000D+00
    3.362067382813D+03 3.563806533813D+00-9.313225746155D-10 0.000000000000D+00
 4 15 02 26 14 15  0.0 1.110546290874D-04 9.094947017729D-13 5.190000000000D+04
    1.892851562500D+03 2.885177612305D+00-0.000000000000D+00 0.000000000000D+00
   -1.105078222656D+04 1.228371620178D+00 0.000000000000D+00 6.000000000000D+00
    2.292051806641D+04 3.533573150635D-01-2.793967723846D-09 0.000000000000D+00
 2 15 02 26 14 45  0.0 1.204712316394D-04 9.094947017729D-13 5.220000000000D+04
    2.358739794922D+04-5.478124618530D-01 0.000000000000D+00 0.000000000000D+00
    8.576285644531D+03-3.177146911621D-01 9.313225746155D-10-4.000000000000D+00
   -4.433255371094D+03-3.508670806885D+00 1.862645149231D-09 0.000000000000D+00
 3 15 02 26 14 45  0.0 3.606919199228D-05 9.094947017729D-13 5.220000000000D+04
    2.197838330078D+04 1.740042686462D+00 0.000000000000D+00 0.000000000000D+00
   -3.766479492188D+02 3.419895172119D-01 1.862645149231D-09 5.000000000000D+00
    1.295102099609D+04-2.952056884766D+00-9.313225746155D-10 0.000000000000D+00
12 15 02 26 14 45  0.0-4.115514457226D-06 0.000000000000D+00 5.220000000000D+04
   -1.014335937500D+03-2.002350807190D+00 9.313225746155D-10 0.000000000000D+00
    1.454520458984D+04 2.056897163391D+00 2.793967723846D-09-1.000000000000D+00
    2.086007812500D+04-1.543313980103D+00-9.313225746155D-10 0.000000000000D+00
 4 15 02 26 14 45  0.0 1.110574230552D-04 9.094947017729D-13 5.220000000000D+04
    7.233048828125D+03 2.999063491821D+00 0.000000000000D+00 0.000000000000D+00
   -9.222330566406D+03 7.879905700684D-01 9.313225746155D-10 6.000000000000D+00
    2.266320947266D+04-6.374263763428D-01-2.793967723846D-09 0.000000000000D+00
13 15 02 26 14 45  0.0-4.733623936772D-04-9.094947017729D-13 5.220000000000D+04
    1.328544531250D+04-2.174870491028D+00 0.000000000000D+00 0.000000000000D+00
    8.322041015625D+02 2.045195579529D+00 1.862645149231D-09-2.000000000000D+00
    2.174088623047D+04 1.249998092651D+00-1.862645149231D-09 0.000000000000D+00
14 15 02 26 14 45  0.0 1.361267641187D-04 4.547473508865D-12 5.220000000000D+04
    1.967868701172D+04-1.097006797791D+00-0.000000000000D+00 0.000000000000D+00
   -1.315994335938D+04 7.552299499512D-01 0.000000000000D+00-7.000000000000D+00
    9.564758789063D+03 3.283424377441D+00-9.313225746155D-10 0.000000000000D+00
 2 15 02 26 15 15  0.0 1.204730942845D-04 9.094947017729D-13 5.400000000000D+04
    2.181661621094D+04-1.410748481750D+00 0.000000000000D+00 0.000000000000D+00
    7.948270507813D+03-3.386945724487D-01 9.313225746155D-10-4.000000000000D+00
   -1.049513574219D+04-3.182851791382D+00 1.862645149231D-09 0.000000000000D+00
 3 15 02 26 15 15  0.0 3.607012331486D-05 0.000000000000D+00 5.400000000000D+04
    2.446552099609D+04 9.936418533325D-01 0.000000000000D+00 0.000000000000D+00
   -1.099140625000D+02-1.435565948486D-02 1.862645149231D-09 5.000000000000D+00
    7.205383789063D+03-3.390608787537D+00 0.000000000000D+00 0.000000000000D+00
13 15 02 26 15 15  0.0-4.733651876450D-04-9.094947017729D-13 5.400000000000D+04
    9.529039062500D+03-1.957887649536D+00 9.313225746155D-10 0.000000000000D+00
    4.950374511719D+03 2.497827529907D+00 1.862645149231D-09-2.000000000000D+00
    2.311987890625D+04 2.722482681274D-01-9.313225746155D-10 0.000000000000D+00
 4 15 02 26 15 15  0.0 1.110602170229D-04 9.094947017729D-13 5.400000000000D+04
    1.250679931641D+04 2.810044288635D+00 0.000000000000D+00 0.000000000000D+00
   -8.236728515625D+03 3.099021911621D-01 9.313225746155D-10 6.000000000000D+00
    2.065527978516D+04-1.579173088074D+00-1.862645149231D-09 0.000000000000D+00
14 15 02 26 15 15  0.0 1.361351460218D-04 4.547473508865D-12 5.400000000000D+04
    1.736856542969D+04-1.424140930176D+00 0.000000000000D+00 0.000000000000D+00
   -1.112990527344D+04 1.503437042236D+00 9.313225746155D-10-7.000000000000D+00
    1.502987402344D+04 2.749495506287D+00-1.862645149231D-09 0.000000000000D+00
15 15 02 26 15 15  0.0 3.983825445175D-05-0.000000000000D+00 5.484000000000D+04
    1.552477539063D+04-1.281948089600D-01-0.000000000000D+00 0.000000000000D+00
   -2.015542773438D+04-2.138280868530D-01-9.313225746155D-10 0.000000000000D+00
   -6.357934570313D+02 3.613389015198D+00-9.313225746155D-10 0.000000000000D+00
23 15 02 26 15 15  0.0 3.266241401434D-05-3.637978807092D-12 5.502000000000D+04
    7.138848632813D+03-7.023811340332D-02 1.862645149231D-09 0.000000000000D+00
    2.401128857422D+04-6.819047927856D-01 2.793967723846D-09 3.000000000000D+00
    4.813694335938D+03 3.504906654358D+00 9.313225746155D-10 0.000000000000D+00
 3 15 02 26 15 45  0.0 3.607198596001D-05 0.000000000000D+00 5.580000000000D+04
    2.547880908203D+04 1.201333999634D-01 0.000000000000D+00 0.000000000000D+00
   -2.986660156250D+02-1.559658050537D-01 9.313225746155D-10 5.000000000000D+00
    9.024248046875D+02-3.567185401917D+00 9.313225746155D-10 0.000000000000D+00
13 15 02 26 15 45  0.0-4.733679816127D-04-9.094947017729D-13 5.580000000000D+04
    6.362055664063D+03-1.533646583557D+00 1.862645149231D-09 0.000000000000D+00
    9.681831542969D+03 2.714078903198D+00 1.862645149231D-09-2.000000000000D+00
    2.270832080078D+04-7.265462875366D-01-9.313225746155D-10 0.000000000000D+00
14 15 02 26 15 45  0.0 1.361435279250D-04 4.547473508865D-12 5.580000000000D+04
    1.471924902344D+04-1.473751068115D+00 0.000000000000D+00 0.000000000000D+00
   -7.772026367188D+03 2.210948944092D+00 9.313225746155D-10-7.000000000000D+00
    1.933487109375D+04 2.002670288086D+00-1.862645149231D-09 0.000000000000D+00
 4 15 02 26 15 45  0.0 1.110630109906D-04 9.094947017729D-13 5.580000000000D+04
    1.717583935547D+04 2.333567619324D+00 0.000000000000D+00 0.000000000000D+00
   -8.064880371094D+03-9.899139404297D-02 9.313225746155D-10 6.000000000000D+00
    1.705142675781D+04-2.399167060852D+00-9.313225746155D-10 0.000000000000D+00
